     3.04           N: GNSS NAV DATA    M: MIXED            RINEX VERSION / TYPE
ssrcrin-15.6.1x                         20250101 134500 UTC PGM / RUN BY / DATE 
    18                                                      LEAP SECONDS        
                                                            END OF HEADER       
E11 2025 01 01 13 40 00-7.107894634828E-05-2.198987658630E-10-3.469446951954E-18
     6.000000000000E+00 1.614687500000E+02 2.575464421288E-09 1.676516007975E+00
     7.534399628639E-06 2.608990762383E-04 8.028000593185E-07 5.440611864090E+03
     3.084000000000E+05 1.862645149231E-09-1.775219067377E+00 3.725290298462E-09
     9.965830789540E-01 3.397500000000E+02 1.118714243282E-01-5.658449982869E-09
     2.914407111040E-10 5.170000000000E+02 2.347000000000E+03
     3.120000000000E+00 0.000000000000E+00-1.676380634308E-08-1.722946763039E-08
     3.090650000000E+05
S36 2025 01 01 13 50 56 0.000000000000E+00 0.000000000000E+00 3.090660000000E+05
     4.200368800000E+04 0.000000000000E+00 0.000000000000E+00 6.300000000000E+01
     3.674846960000E+03 0.000000000000E+00 0.000000000000E+00 3.276700000000E+04
     0.000000000000E+00 0.000000000000E+00 0.000000000000E+00 2.220000000000E+02
S23 2025 01 01 13 51 28 0.000000000000E+00 0.000000000000E+00 3.090940000000E+05
     3.866796400000E+04 0.000000000000E+00 0.000000000000E+00 6.300000000000E+01
     1.681330800000E+04 0.000000000000E+00 0.000000000000E+00 3.276700000000E+04
     0.000000000000E+00 0.000000000000E+00 0.000000000000E+00 1.270000000000E+02
S21 2025 01 01 13 52 00 0.000000000000E+00 0.000000000000E+00 3.091310000000E+05
     4.200468400000E+04 0.000000000000E+00 0.000000000000E+00 6.300000000000E+01
    -3.674932960000E+03 0.000000000000E+00 0.000000000000E+00 3.276700000000E+04
     0.000000000000E+00 0.000000000000E+00 0.000000000000E+00 1.530000000000E+02
E27 2025 01 01 13 40 00-5.449035088532E-04-9.919176591211E-12 0.000000000000E+00
     6.000000000000E+00-1.615625000000E+01 3.519789470502E-09 2.134587539968E-01
    -6.444752216339E-07 3.206334076822E-04 6.258487701416E-06 5.440602109909E+03
     3.084000000000E+05 6.519258022308E-08 2.413569505281E+00 1.862645149231E-09
     9.642076427071E-01 2.050312500000E+02 5.527093029724E-01-5.548802558470E-09
    -6.371693978058E-10 2.580000000000E+02 2.347000000000E+03
     3.120000000000E+00 0.000000000000E+00-4.656612873077E-10 0.000000000000E+00
     3.091400000000E+05
E34 2025 01 01 13 40 00-1.551055465825E-04-2.202682480856E-12 0.000000000000E+00
     6.000000000000E+00 1.642812500000E+02 2.541534436539E-09 2.402061163238E+00
     7.744878530502E-06 1.913621090353E-04 2.533197402954E-07 5.440605037689E+03
     3.084000000000E+05 4.284083843231E-08-1.777756396381E+00 8.754432201385E-08
     9.995111899501E-01 3.533437500000E+02-2.151518032802E+00-5.597018852587E-09
     3.367997433469E-10 2.580000000000E+02 2.347000000000E+03
     3.120000000000E+00 0.000000000000E+00 6.984919309616E-10 0.000000000000E+00
     3.091400000000E+05
E29 2025 01 01 13 40 00-5.847780266777E-05-3.154809746775E-12 0.000000000000E+00
     6.000000000000E+00-1.867812500000E+02 2.796902216490E-09-5.868392666110E-01
    -8.519738912582E-06 3.150628181174E-04 1.177377998829E-05 5.440619644165E+03
     3.084000000000E+05 0.000000000000E+00 3.157022887361E-01 2.980232238770E-08
     9.569341924930E-01 8.528125000000E+01 2.648824242093E+00-5.282005731026E-09
     3.428714248282E-10 2.580000000000E+02 2.347000000000E+03
     3.120000000000E+00 0.000000000000E+00-5.355104804039E-09 0.000000000000E+00
     3.091400000000E+05
E02 2025 01 01 13 40 00 1.867482787929E-04 2.870592652471E-12 0.000000000000E+00
     6.000000000000E+00-2.425000000000E+01 3.378355007761E-09 1.649826407652E+00
    -1.305714249611E-06 5.101278657094E-04 6.629154086113E-06 5.440613420486E+03
     3.084000000000E+05-2.235174179077E-08 2.416757142333E+00 4.656612873077E-08
     9.646373046728E-01 1.997187500000E+02 6.898108210695E-01-5.471299330150E-09
    -6.978862126191E-10 2.580000000000E+02 2.347000000000E+03
     3.120000000000E+00 0.000000000000E+00-3.958120942116E-09 0.000000000000E+00
     3.091400000000E+05
E11 2025 01 01 13 40 00-7.107865530998E-05-2.199129767178E-10-3.469446951954E-18
     6.000000000000E+00 1.614687500000E+02 2.575464421288E-09 1.676516007975E+00
     7.534399628639E-06 2.608990762383E-04 8.028000593185E-07 5.440611864090E+03
     3.084000000000E+05 1.862645149231E-09-1.775219067377E+00 3.725290298462E-09
     9.965830789540E-01 3.397500000000E+02 1.118714243282E-01-5.658449982869E-09
     2.914407111040E-10 2.580000000000E+02 2.347000000000E+03
     3.120000000000E+00 0.000000000000E+00-1.676380634308E-08 0.000000000000E+00
     3.091400000000E+05
S44 2025 01 01 13 52 00 8.405186235905E-07 0.000000000000E+00 3.091520000000E+05
     7.274936640000E+03 4.732500000000E-03 8.750000000000E-08 6.300000000000E+01
     4.154083968000E+04 1.013125000000E-03-2.750000000000E-07 3.276700000000E+04
    -2.283960000000E+02 1.394000000000E-01 6.250000000000E-07 6.000000000000E+01
S27 2025 01 01 13 53 04 4.209578037262E-07 5.911715561524E-11 3.091600000000E+05
     2.407766024000E+04 1.542500000000E-03 3.625000000000E-07 3.100000000000E+01
     3.461211880000E+04 2.289375000000E-03-2.250000000000E-07 4.096000000000E+03
    -5.572696000000E+02 5.540000000000E-03 2.937500000000E-06 1.930000000000E+02
S28 2025 01 01 13 53 04 1.420266926289E-07 6.366462912410E-12 3.091600000000E+05
     5.079319120000E+03 1.992500000000E-03 1.625000000000E-07 6.300000000000E+01
     4.187138144000E+04 8.906250000000E-04-8.750000000000E-08 3.276700000000E+04
     2.327640000000E+01 1.120000000000E-04-1.250000000000E-07 1.930000000000E+02
S23 2025 01 01 13 53 36 0.000000000000E+00 0.000000000000E+00 3.092200000000E+05
     3.866796400000E+04 0.000000000000E+00 0.000000000000E+00 6.300000000000E+01
     1.681330800000E+04 0.000000000000E+00 0.000000000000E+00 3.276700000000E+04
     0.000000000000E+00 0.000000000000E+00 0.000000000000E+00 1.280000000000E+02
S36 2025 01 01 13 53 36 0.000000000000E+00 0.000000000000E+00 3.092220000000E+05
     4.200368800000E+04 0.000000000000E+00 0.000000000000E+00 6.300000000000E+01
     3.674846960000E+03 0.000000000000E+00 0.000000000000E+00 3.276700000000E+04
     0.000000000000E+00 0.000000000000E+00 0.000000000000E+00 2.230000000000E+02
S44 2025 01 01 13 54 08 8.405186235905E-07 0.000000000000E+00 3.092720000000E+05
     7.275543760000E+03 4.753750000000E-03 7.500000000000E-08 6.300000000000E+01
     4.154096480000E+04 9.418750000000E-04-2.750000000000E-07 3.276700000000E+04
    -2.105432000000E+02 1.395480000000E-01 5.625000000000E-07 6.000000000000E+01
R17 2025 01 01 13 45 00 1.536346971989E-04 2.728484105319E-12 3.092700000000E+05
     2.230012353516E+04 1.560263633728E+00 5.587935447693E-09 0.000000000000E+00
     3.754603515625E+03 4.786128997803E-01-1.862645149231E-09 4.000000000000E+00
    -1.182554980469E+04 3.086750030518E+00-1.862645149231E-09 0.000000000000E+00
S21 2025 01 01 13 54 56 0.000000000000E+00 0.000000000000E+00 3.092970000000E+05
     4.200468400000E+04 0.000000000000E+00 0.000000000000E+00 6.300000000000E+01
    -3.674932960000E+03 0.000000000000E+00 0.000000000000E+00 3.276700000000E+04
     0.000000000000E+00 0.000000000000E+00 0.000000000000E+00 1.540000000000E+02
E15 2025 01 01 13 40 00-1.484728418291E-04-2.316369318578E-12 0.000000000000E+00
     6.000000000000E+00 1.835625000000E+02 2.563678216059E-09 6.475756197924E-01
     8.586794137955E-06 4.396281437948E-04 2.980232238770E-08 5.440610122681E+03
     3.084000000000E+05 7.078051567078E-08-1.775962656933E+00-5.029141902924E-08
     9.996367375797E-01 3.582187500000E+02-1.178922112918E+00-5.705237646048E-09
     3.614436270064E-10 5.170000000000E+02 2.347000000000E+03
     3.120000000000E+00 0.000000000000E+00 2.561137080193E-09 3.725290298462E-09
     3.093050000000E+05
E15 2025 01 01 13 40 00-1.484744134359E-04-2.330580173293E-12 0.000000000000E+00
     6.000000000000E+00 1.835625000000E+02 2.563678216059E-09 6.475756197924E-01
     8.586794137955E-06 4.396281437948E-04 2.980232238770E-08 5.440610122681E+03
     3.084000000000E+05 7.078051567078E-08-1.775962656933E+00-5.029141902924E-08
     9.996367375797E-01 3.582187500000E+02-1.178922112918E+00-5.705237646048E-09
     3.614436270064E-10 2.580000000000E+02 2.347000000000E+03
     3.120000000000E+00 0.000000000000E+00 2.561137080193E-09 0.000000000000E+00
     3.093200000000E+05
S23 2025 01 01 13 55 44 0.000000000000E+00 0.000000000000E+00 3.093470000000E+05
     3.866796400000E+04 0.000000000000E+00 0.000000000000E+00 6.300000000000E+01
     1.681330800000E+04 0.000000000000E+00 0.000000000000E+00 3.276700000000E+04
     0.000000000000E+00 0.000000000000E+00 0.000000000000E+00 1.290000000000E+02
S36 2025 01 01 13 56 00 0.000000000000E+00 0.000000000000E+00 3.093700000000E+05
     4.200368800000E+04 0.000000000000E+00 0.000000000000E+00 6.300000000000E+01
     3.674846960000E+03 0.000000000000E+00 0.000000000000E+00 3.276700000000E+04
     0.000000000000E+00 0.000000000000E+00 0.000000000000E+00 2.240000000000E+02
S44 2025 01 01 13 56 16 8.405186235905E-07 0.000000000000E+00 3.093920000000E+05
     7.276153520000E+03 4.773750000000E-03 7.500000000000E-08 6.300000000000E+01
     4.154108088000E+04 8.706250000000E-04-2.750000000000E-07 3.276700000000E+04
    -1.926716000000E+02 1.396880000000E-01 5.000000000000E-07 6.000000000000E+01
